{
    "links": {
        "self": "http://www.neowsapp.com/rest/v1/neo/3842884?api_key=iIulBulltgU6a56xZRHN4H3l9WmuAYTsLGpBGhQ2"
    },
    "id": "3842884",
    "neo_reference_id": "3842884",
    "name": "(2019 LJ5)",
    "designation": "2019 LJ5",
    "nasa_jpl_url": "http://ssd.jpl.nasa.gov/sbdb.cgi?sstr=3842884",
    "absolute_magnitude_h": 24.4,
    "estimated_diameter": {
        "kilometers": {
            "estimated_diameter_min": 0.0350392641,
            "estimated_diameter_max": 0.0783501764
        },
        "meters": {
            "estimated_diameter_min": 35.0392641108,
            "estimated_diameter_max": 78.3501764334
        },
        "miles": {
            "estimated_diameter_min": 0.0217723826,
            "estimated_diameter_max": 0.0486845275
        },
        "feet": {
            "estimated_diameter_min": 114.9582192654,
            "estimated_diameter_max": 257.0543928497
        }
    },
    "is_potentially_hazardous_asteroid": false,
    "close_approach_data": [
        {
            "close_approach_date": "2009-05-28",
            "close_approach_date_full": "2009-May-28 18:14",
            "epoch_date_close_approach": 1243534440000,
            "relative_velocity": {
                "kilometers_per_second": "14.2930836232",
                "kilometers_per_hour": "51455.1010435528",
                "miles_per_hour": "31972.1987567564"
            },
            "miss_distance": {
                "astronomical": "0.329123992",
                "lunar": "128.029232888",
                "kilometers": "49236248.16909704",
                "miles": "30593985.950297552"
            },
            "orbiting_body": "Earth"
        },
        {
            "close_approach_date": "2019-06-01",
            "close_approach_date_full": "2019-Jun-01 10:43",
            "epoch_date_close_approach": 1559385780000,
            "relative_velocity": {
                "kilometers_per_second": "11.1687981754",
                "kilometers_per_hour": "40207.6734316016",
                "miles_per_hour": "24983.4846386527"
            },
            "miss_distance": {
                "astronomical": "0.1259373582",
                "lunar": "48.9896323398",
                "kilometers": "18839960.540147034",
                "miles": "11706608.6369917092"
            },
            "orbiting_body": "Earth"
        },
        {
            "close_approach_date": "2024-05-31",
            "close_approach_date_full": "2024-May-31 22:21",
            "epoch_date_close_approach": 1717194060000,
            "relative_velocity": {
                "kilometers_per_second": "11.374960686",
                "kilometers_per_hour": "40949.8584695698",
                "miles_per_hour": "25444.6495584946"
            },
            "miss_distance": {
                "astronomical": "0.227478868",
                "lunar": "88.489279652",
                "kilometers": "34030354.12281116",
                "miles": "21145481.522907608"
            },
            "orbiting_body": "Earth"
        },
        {
            "close_approach_date": "2029-05-30",
            "close_approach_date_full": "2029-May-30 04:18",
            "epoch_date_close_approach": 1874809080000,
            "relative_velocity": {
                "kilometers_per_second": "12.5125526576",
                "kilometers_per_hour": "45045.1895674745",
                "miles_per_hour": "27989.3290398566"
            },
            "miss_distance": {
                "astronomical": "0.3806006957",
                "lunar": "148.0536706273",
                "kilometers": "56937053.397238159",
                "miles": "35379044.4329542342"
            },
            "orbiting_body": "Earth"
        }
    ],
    "orbital_data": {
        "orbit_id": "1",
        "orbit_determination_date": "2019-06-18 12:42:03",
        "first_observation_date": "2019-05-30",
        "last_observation_date": "2019-06-10",
        "data_arc_in_days": 11,
        "observations_used": 21,
        "orbit_uncertainty": "7",
        "minimum_orbit_intersection": ".123211",
        "jupiter_tisserand_invariant": "4.639",
        "epoch_osculation": "2459000.5",
        "eccentricity": ".2004831524034523",
        "semi_major_axis": "1.410779084633423",
        "inclination": "21.30442038613285",
        "ascending_node_longitude": "247.5270271823082",
        "orbital_period": "612.0500609914618",
        "perihelion_distance": "1.127941646401258",
        "perihelion_argument": "19.25383782108953",
        "aphelion_distance": "1.693616522865589",
        "perihelion_time": "2459267.689314792502",
        "mean_anomaly": "202.8426701412542",
        "mean_motion": ".5881871809911021",
        "equinox": "J2000",
        "orbit_class": {
            "orbit_class_type": "AMO",
            "orbit_class_description": "Near-Earth asteroid orbits similar to that of 1221 Amor",
            "orbit_class_range": "1.017 AU < q (perihelion) < 1.3 AU"
        }
    },
    "is_sentry_object": false
}